[{"OBJECT_NAME":"STARLINK-32504","OBJECT_ID":"2024-213S","EPOCH":"2026-03-09T12:59:39.167520","MEAN_MOTION":15.30210574,"ECCENTRICITY":0.00033513,"INCLINATION":53.1596,"RA_OF_ASC_NODE":168.7092,"ARG_OF_PERICENTER":170.7831,"MEAN_ANOMALY":189.3232,"EPHEMERIS_TYPE":0,"CLASSIFICATION_TYPE":"U","NORAD_CAT_ID":62024,"ELEMENT_SET_NO":999,"REV_AT_EPOCH":7313,"BSTAR":0.00086230332,"MEAN_MOTION_DOT":0.00025277,"MEAN_MOTION_DDOT":0},{"OBJECT_NAME":"COSMOS 2251 DEB","OBJECT_ID":"1993-036DE","EPOCH":"2026-03-09T20:53:28.838688","MEAN_MOTION":15.29467846,"ECCENTRICITY":0.00306247,"INCLINATION":73.7716,"RA_OF_ASC_NODE":223.0836,"ARG_OF_PERICENTER":342.1726,"MEAN_ANOMALY":17.8397,"EPHEMERIS_TYPE":0,"CLASSIFICATION_TYPE":"U","NORAD_CAT_ID":33901,"ELEMENT_SET_NO":999,"REV_AT_EPOCH":90839,"BSTAR":0.0037194515,"MEAN_MOTION_DOT":0.00109321,"MEAN_MOTION_DDOT":0}]
